O3B FM5                 
1 39188U 13031A   22054.51488811 -.00000016  00000+0  00000+0 0  9992
2 39188   0.0324   8.6406 0002777 337.9770  13.3710  5.00116188158260
O3B FM4                 
1 39189U 13031B   22054.38068933 -.00000016  00000+0  00000+0 0  9997
2 39189   0.0600  12.3226 0002662 278.7277  68.9173  5.00116235158270
O3B FM2                 
1 39190U 13031C   22053.03396674 -.00000014  00000+0  00000+0 0  9994
2 39190   0.0649  13.7828 0005025 240.4160 105.7423  5.00115930158269
O3B PFM                 
1 39191U 13031D   22054.26015483 -.00000015  00000+0  00000+0 0  9998
2 39191   0.0413   8.4179 0002583 328.1957  23.3708  5.00115772158112
O3B FM3                 
1 40079U 14038A   22052.96896856 -.00000014  00000+0  00000+0 0  9998
2 40079   0.0522  12.4713 0004378 348.1181 359.4075  5.00115337134193
O3B FM7                 
1 40080U 14038B   22054.51429833 -.00000016  00000+0  00000+0 0  9992
2 40080   0.0551  16.1474 0001891 272.0160  71.8120  5.00115935139107
O3B FM6                 
1 40081U 14038C   22054.54056754 -.00000016  00000+0  00000+0 0  9994
2 40081   0.0532  11.6773 0002617 323.0436  25.2623  5.00115418139049
O3B FM8                 
1 40082U 14038D   22054.39466833 -.00000016  00000+0  00000+0 0  9991
2 40082   0.0562  10.9424 0002770 322.6001  26.4394  5.00115449139166
O3B FM10                
1 40348U 14083A   22054.22079554 -.00000015  00000+0  00000+0 0  9997
2 40348   0.0459   5.2382 0002621 328.5493  26.1954  5.00115883131096
O3B FM11                
1 40349U 14083B   22053.23473698 -.00000014  00000+0  00000+0 0  9994
2 40349   0.0440  10.8285 0001910 316.7229  32.4332  5.00115223131073
O3B FM12                
1 40350U 14083C   22054.26135253 -.00000015  00000+0  00000+0 0  9993
2 40350   0.0450  10.5928 0002467 326.1947  23.1974  5.00115151131133
O3B FM9                 
1 40351U 14083D   22054.48817440 -.00000016  00000+0  00000+0 0  9994
2 40351   0.0434  12.1509 0002541 321.6642  26.1680  5.00114965131289
DIAMOND RED             
1 42783U 17036U   22054.58089035  .00004731  00000+0  18956-3 0  9998
2 42783  97.2175  99.3652 0011643  22.7818 337.3935 15.25435235259570
DIAMOND GREEN           
1 42785U 17036W   22054.57976787  .00004998  00000+0  20010-3 0  9997
2 42785  97.2178  99.4232 0011503  23.6212 336.5552 15.25439768259642
DIAMOND BLUE            
1 42786U 17036X   22054.57896954  .00004896  00000+0  19608-3 0  9993
2 42786  97.2180  99.4144 0011467  24.0797 336.0976 15.25436788259644
LEO VANTAGE 1           
1 43113U 18004C   22054.46222675  .00000928  00000+0  10145-3 0  9994
2 43113  99.2609 122.3623 0384776 173.3176 187.3363 14.49345545207689
O3B FM15                
1 43231U 18024A   22054.55437937 -.00000016  00000+0  00000+0 0  9990
2 43231   0.0471   1.1868 0002680 335.7956  23.0016  5.00115827 72241
O3B FM16                
1 43232U 18024B   22054.40782631 -.00000016  00000+0  00000+0 0  9999
2 43232   0.0479 356.3078 0002654 340.2465  23.4296  5.00115728 72160
O3B FM14                
1 43233U 18024C   22054.24747602 -.00000015  00000+0  00000+0 0  9990
2 43233   0.0488 354.8078 0002535 338.5174  26.6578  5.00116217 72161
O3B FM13                
1 43234U 18024D   22052.90148224 -.00000014  00000+0  00000+0 0  9996
2 43234   0.0278  23.9085 0002434 330.2636   5.8213  5.00114678 72211
O3B FM20                
1 44112U 19020A   22054.47399273 -.00000016  00000+0  00000+0 0  9997
2 44112   0.0466   5.3401 0002343 334.7835  19.8632  5.00115280 52781
O3B FM19                
1 44113U 19020B   22052.90147366 -.00000014  00000+0  00000+0 0  9996
2 44113   0.0190 349.1234 0002575 318.4584  52.3911  5.00114752 52589
O3B FM17                
1 44114U 19020C   22054.38143676 -.00000016  00000+0  00000+0 0  9993
2 44114   0.0651 358.5589 0002680 340.1922  21.2338  5.00115305 52745
O3B FM18                
1 44115U 19020D   22054.52795050 -.00000016  00000+0  00000+0 0  9999
2 44115   0.0462   5.4576 0002799 330.2498  24.2754  5.00115619 52876
SALSAT                  
1 46495U 20068K   22054.41064942  .00000809  00000+0  63097-4 0  9992
2 46495  97.7192 355.8102 0015309 307.9945  51.9897 15.03915794 77045
